{
  "type": "FeatureCollection",
  "features": [
    {
      "type": "Feature",
      "properties": {
        "norad_id": 29760,
        "name": "FENGYUN 1C DEB",
        "group": "fengyun-1c-debris",
        "lat": -34.7039693989384,
        "lon": 162.2913635668287,
        "alt_km": 798.4134974922881,
        "timestamp": "2025-12-12T05:47:29.041989+00:00",
        "meta_object_name": "FENGYUN 1C DEB",
        "meta_object_id": "1999-025BA",
        "meta_epoch": "2025-12-11T23:39:46.479168",
        "meta_mean_motion": 14.08288245,
        "meta_eccentricity": 0.01308003,
        "meta_inclination": 98.7621,
        "meta_ra_of_asc_node": 348.1747,
        "meta_arg_of_pericenter": 175.6934,
        "meta_mean_anomaly": 184.5395,
        "meta_ephemeris_type": 0,
        "meta_classification_type": "U",
        "meta_norad_cat_id": 29760,
        "meta_element_set_no": 999,
        "meta_rev_at_epoch": 97082,
        "meta_bstar": 0.00017806028,
        "meta_mean_motion_dot": 2.87e-06,
        "meta_mean_motion_ddot": 0,
        "tle_line1": "1 29760U 99025BA  25345.98595462  .00000287  00000+0  17806-3 0  9997",
        "tle_line2": "2 29760  98.7621 348.1747 0130800 175.6934 184.5395 14.08288245970823"
      },
      "geometry": {
        "type": "Point",
        "coordinates": [
          162.2913635668287,
          -34.7039693989384
        ]
      }
    },
    {
      "type": "Feature",
      "properties": {
        "norad_id": 29762,
        "name": "FENGYUN 1C DEB",
        "group": "fengyun-1c-debris",
        "lat": 24.976799531193507,
        "lon": 153.07801621987403,
        "alt_km": 962.5346758484366,
        "timestamp": "2025-12-12T05:47:29.041999+00:00",
        "meta_object_name": "FENGYUN 1C DEB",
        "meta_object_id": "1999-025BC",
        "meta_epoch": "2025-12-11T22:24:36.381024",
        "meta_mean_motion": 14.22580147,
        "meta_eccentricity": 0.02040321,
        "meta_inclination": 98.5796,
        "meta_ra_of_asc_node": 328.7458,
        "meta_arg_of_pericenter": 338.0032,
        "meta_mean_anomaly": 42.334,
        "meta_ephemeris_type": 0,
        "meta_classification_type": "U",
        "meta_norad_cat_id": 29762,
        "meta_element_set_no": 999,
        "meta_rev_at_epoch": 97937,
        "meta_bstar": 0.00068714163,
        "meta_mean_motion_dot": 1.853e-05,
        "meta_mean_motion_ddot": 0,
        "tle_line1": "1 29762U 99025BC  25345.93375441  .00001853  00000+0  68714-3 0  9991",
        "tle_line2": "2 29762  98.5796 328.7458 0204032 338.0032  42.3340 14.22580147979374"
      },
      "geometry": {
        "type": "Point",
        "coordinates": [
          153.07801621987403,
          24.976799531193507
        ]
      }
    },
    {
      "type": "Feature",
      "properties": {
        "norad_id": 29763,
        "name": "FENGYUN 1C DEB",
        "group": "fengyun-1c-debris",
        "lat": 44.1848358181208,
        "lon": -42.95694787019343,
        "alt_km": 929.7659367956176,
        "timestamp": "2025-12-12T05:47:29.042010+00:00",
        "meta_object_name": "FENGYUN 1C DEB",
        "meta_object_id": "1999-025BD",
        "meta_epoch": "2025-12-11T23:04:01.161984",
        "meta_mean_motion": 14.07875946,
        "meta_eccentricity": 0.01273281,
        "meta_inclination": 98.761,
        "meta_ra_of_asc_node": 325.3912,
        "meta_arg_of_pericenter": 182.6981,
        "meta_mean_anomaly": 243.947,
        "meta_ephemeris_type": 0,
        "meta_classification_type": "U",
        "meta_norad_cat_id": 29763,
        "meta_element_set_no": 999,
        "meta_rev_at_epoch": 97039,
        "meta_bstar": 0.00036220717,
        "meta_mean_motion_dot": 6.19e-06,
        "meta_mean_motion_ddot": 0,
        "tle_line1": "1 29763U 99025BD  25345.96112456  .00000619  00000+0  36221-3 0  9997",
        "tle_line2": "2 29763  98.7610 325.3912 0127328 182.6981 243.9470 14.07875946970391"
      },
      "geometry": {
        "type": "Point",
        "coordinates": [
          -42.95694787019343,
          44.1848358181208
        ]
      }
    },
    {
      "type": "Feature",
      "properties": {
        "norad_id": 29765,
        "name": "FENGYUN 1C DEB",
        "group": "fengyun-1c-debris",
        "lat": -60.0028908132951,
        "lon": 20.06427436996867,
        "alt_km": 932.8683339517074,
        "timestamp": "2025-12-12T05:47:29.042020+00:00",
        "meta_object_name": "FENGYUN 1C DEB",
        "meta_object_id": "1999-025BF",
        "meta_epoch": "2025-12-11T23:31:32.630592",
        "meta_mean_motion": 14.02153014,
        "meta_eccentricity": 0.00598798,
        "meta_inclination": 98.8307,
        "meta_ra_of_asc_node": 4.1896,
        "meta_arg_of_pericenter": 94.6842,
        "meta_mean_anomaly": 327.3627,
        "meta_ephemeris_type": 0,
        "meta_classification_type": "U",
        "meta_norad_cat_id": 29765,
        "meta_element_set_no": 999,
        "meta_rev_at_epoch": 96740,
        "meta_bstar": 7.6340609e-05,
        "meta_mean_motion_dot": 7.6e-07,
        "meta_mean_motion_ddot": 0,
        "tle_line1": "1 29765U 99025BF  25345.98023878  .00000076  00000+0  76341-4 0  9995",
        "tle_line2": "2 29765  98.8307   4.1896 0059879  94.6842 327.3627 14.02153014967402"
      },
      "geometry": {
        "type": "Point",
        "coordinates": [
          20.06427436996867,
          -60.0028908132951
        ]
      }
    },
    {
      "type": "Feature",
      "properties": {
        "norad_id": 29766,
        "name": "FENGYUN 1C DEB",
        "group": "fengyun-1c-debris",
        "lat": 78.17585327759474,
        "lon": 162.79567706082076,
        "alt_km": 1000.8697108035094,
        "timestamp": "2025-12-12T05:47:29.042030+00:00",
        "meta_object_name": "FENGYUN 1C DEB",
        "meta_object_id": "1999-025BG",
        "meta_epoch": "2025-12-11T21:01:47.446176",
        "meta_mean_motion": 13.97045565,
        "meta_eccentricity": 0.01461231,
        "meta_inclination": 98.6852,
        "meta_ra_of_asc_node": 295.5537,
        "meta_arg_of_pericenter": 290.7055,
        "meta_mean_anomaly": 131.9549,
        "meta_ephemeris_type": 0,
        "meta_classification_type": "U",
        "meta_norad_cat_id": 29766,
        "meta_element_set_no": 999,
        "meta_rev_at_epoch": 95792,
        "meta_bstar": 0.0023915266,
        "meta_mean_motion_dot": 3.612e-05,
        "meta_mean_motion_ddot": 0,
        "tle_line1": "1 29766U 99025BG  25345.87624359  .00003612  00000+0  23915-2 0  9991",
        "tle_line2": "2 29766  98.6852 295.5537 0146123 290.7055 131.9549 13.97045565957920"
      },
      "geometry": {
        "type": "Point",
        "coordinates": [
          162.79567706082076,
          78.17585327759474
        ]
      }
    },
    {
      "type": "Feature",
      "properties": {
        "norad_id": 29767,
        "name": "FENGYUN 1C DEB",
        "group": "fengyun-1c-debris",
        "lat": -26.470609524545683,
        "lon": -40.898133668563815,
        "alt_km": 876.9884835452485,
        "timestamp": "2025-12-12T05:47:29.042040+00:00",
        "meta_object_name": "FENGYUN 1C DEB",
        "meta_object_id": "1999-025BH",
        "meta_epoch": "2025-12-11T21:36:24.137568",
        "meta_mean_motion": 14.03327883,
        "meta_eccentricity": 0.03332758,
        "meta_inclination": 98.1986,
        "meta_ra_of_asc_node": 314.6771,
        "meta_arg_of_pericenter": 63.6352,
        "meta_mean_anomaly": 351.6217,
        "meta_ephemeris_type": 0,
        "meta_classification_type": "U",
        "meta_norad_cat_id": 29767,
        "meta_element_set_no": 999,
        "meta_rev_at_epoch": 95588,
        "meta_bstar": 0.0032139523,
        "meta_mean_motion_dot": 8.19e-05,
        "meta_mean_motion_ddot": 0,
        "tle_line1": "1 29767U 99025BH  25345.90027937  .00008190  00000+0  32140-2 0  9991",
        "tle_line2": "2 29767  98.1986 314.6771 0333275  63.6352 351.6217 14.03327883955880"
      },
      "geometry": {
        "type": "Point",
        "coordinates": [
          -40.898133668563815,
          -26.470609524545683
        ]
      }
    },
    {
      "type": "Feature",
      "properties": {
        "norad_id": 29769,
        "name": "FENGYUN 1C DEB",
        "group": "fengyun-1c-debris",
        "lat": 10.016202495422208,
        "lon": 41.88894272471641,
        "alt_km": 883.8829934048599,
        "timestamp": "2025-12-12T05:47:29.042050+00:00",
        "meta_object_name": "FENGYUN 1C DEB",
        "meta_object_id": "1999-025BK",
        "meta_epoch": "2025-12-10T14:40:10.559712",
        "meta_mean_motion": 14.13511382,
        "meta_eccentricity": 0.0093919,
        "meta_inclination": 99.1049,
        "meta_ra_of_asc_node": 41.8532,
        "meta_arg_of_pericenter": 136.3981,
        "meta_mean_anomaly": 224.4662,
        "meta_ephemeris_type": 0,
        "meta_classification_type": "U",
        "meta_norad_cat_id": 29769,
        "meta_element_set_no": 999,
        "meta_rev_at_epoch": 96651,
        "meta_bstar": 0.0020798,
        "meta_mean_motion_dot": 4.04e-05,
        "meta_mean_motion_ddot": 0,
        "tle_line1": "1 29769U 99025BK  25344.61123333  .00004040  00000+0  20798-2 0  9993",
        "tle_line2": "2 29769  99.1049  41.8532 0093919 136.3981 224.4662 14.13511382966514"
      },
      "geometry": {
        "type": "Point",
        "coordinates": [
          41.88894272471641,
          10.016202495422208
        ]
      }
    }
  ]
}